#dP2019  9  1  0  0  0.00000000      96 __u+U ITR00 FIT  IAC
## 2069      0.00000000   900.00000000 58727 0.0000000000000
+  114   C01C02C03C04C05C06C07C08C09C10C11C12C13C14C16C19C20
+        C21C22C23C24C25C26C27C28C29C30C32C33C34C35C36E01E02
+        E03E04E05E07E08E09E11E12E13E14E15E18E19E21E24E25E26
+        E27E30E31E33E36G01G02G03G04G05G06G07G08G09G10G11G12
+        G13G14G15G16G17G18G19G20G21G22G23G24G25G26G27G28G29
+        G30G31G32J01J02J03J07R01R02R03R05R06R07R08R09R11R12
+        R13R14R15R16R17R18R19R20R21R22R23R24  0  0  0  0  0
++        13 13 13 13 12  8  8  8  8  8  8  8  8  8  8  7  7
++         7  7  8  8  8  8  8  8  8  8  8  9  9 10  9  5  4
++         5  5  5  5  5  5  5  5  5  5  5  5  5  5  5  4  5
++         5  4  5  5  5  3  3  3  4  3  3  3  3  3  3  3  3
++         3  3  3  3  3  3  3  3  3  3  3  3  3  3  3  3  3
++         3  3  3  8  8  8 16  6  5  5  5 15  5  5  5  5  6
++         6  6  5  6  5  5  6  6  5  5  5  7  0  0  0  0  0
%c M  cc GPS ccc cccc cccc cccc cccc ccccc ccccc ccccc ccccc
%c cc cc ccc ccc cccc cccc cccc cccc ccccc ccccc ccccc ccccc
%f  0.0000000  0.000000000  0.00000000000  0.000000000000000
%f  0.0000000  0.000000000  0.00000000000  0.000000000000000
%i    0    0    0    0      0      0      0      0         0
%i    0    0    0    0      0      0      0      0         0
/* INFORMATION & ANALYSIS CENTER (IAC) OF MCC   (RAPID DATA)
/* S/V CLOCKS ARE ALIGNED TO GPS & GLONASS TIME RESPECTIVELY
/* USING THE BROADCAST EPHEMERIS                            
/* PCV:IGS14_2062 OL/AL:FES2004  NONE     YN ORB:CoN CLK:CoN
*  2019 09 01  5 45  0.00000000
PC01 -32317.942506  27062.845859   -379.146823    232.100520
PC02   4325.877505  41942.041349    862.316453    -64.420270
PC03 -14735.102726  39514.595025    574.664224    -61.980841
PC04 -39622.908296  14375.409522    106.471869    107.890371
PC05  21926.716741  36022.524826    973.797738   -171.933898
PC06 -19776.777903  37417.412986  -1602.848254    438.830160
PC07  -7177.571232  29490.208665 -28884.790340   -101.804386
PC08 -20749.232014  19436.450641  31079.256523     -0.656658
PC09 -10887.765733  37941.727139 -15068.491781    -66.507608
PC10   4459.213345  35690.507070 -21483.008065   -134.667449
PC11 -23684.635439  11616.652989  -8946.406478    181.277949
PC12  -9381.875095 -12146.006054 -23247.216291   -238.739240
PC13  -5217.783139  23236.060995  34816.550100   -922.016092
PC14 -16528.080993  -6167.738298  21675.282188    506.589081
PC16 -17401.428077  38256.698496  -4365.743657   -876.381310
PC19  11235.536544 -15907.352872 -19970.602860    186.822900
PC20  16432.730292   4343.558723 -22111.421851    -21.306136
PC21 -11967.674343 -22622.734877  11169.168987    334.486245
PC22   -517.698672 -27229.359627  -6164.586611    -51.436583
PC23    857.810526  17041.345793 -22065.519731   -933.337683
PC24 -26689.793650  -6074.141680  -5390.756356   -914.662096
PC25 -17920.684208   8424.275520 -19654.977069   -333.667586
PC26 -20170.115719 -15578.635818  11340.452280    370.692540
PC27   9583.395421  12677.704279  22922.902461    181.957132
PC28  -8722.011365  21176.521674  15934.998643    175.875502
PC29  21216.824926 -18128.032859    310.135537    112.306675
PC30  22076.652352  -3877.273064  16613.037911    185.056193
PC32  12126.313227  22509.884412 -11155.031865   -915.219649
PC33 -11246.541506  15866.620986  20009.302910   -351.244415
PC34 -22225.805782   4038.938267 -16401.181858    -41.987523
PC35   8044.119497 -21495.426307 -15855.925885   -291.569431
PC36  18228.534987  -7924.214379  19614.730635   -775.197098
PE01  -1696.870865  19038.598973 -22590.971369   -680.651943
PE02   1631.814908 -19083.930833  22573.602125     76.700786
PE03   8694.882144 -28189.331277  -2552.934432   -205.892616
PE04   4922.262402  25005.802680 -15045.649568   -356.325845
PE05  17345.610713 -14861.024321 -18827.151808   -452.506499
PE07 -15807.666330  -7093.187905  24009.118181   -257.497991
PE08  -5122.187840 -24877.149399  15219.680493   6298.617451
PE09  15739.239441   6851.572511 -24106.723863   6330.221074
PE11  25575.903604   2376.069427  14692.976829   5606.787769
PE12   8374.932757  14418.794109  24453.097798   6220.192697
PE13 -25505.067683  -2310.287443 -14841.218994    392.246522
PE14  13947.160325   5706.081235  17858.756790   -703.131288
PE15  -8809.423850 -14151.184762 -24457.897200    897.169677
PE18 -18676.621488  -9353.832970 -25022.325102   -797.562505
PE19  -9858.742190  27543.868433   4509.223868     -4.208877
PE21 -18329.295302   3572.953063 -22964.025301   -552.465456
PE24  24122.776145  13982.219176   9947.602370   5894.263161
PE25  18365.999398  -3527.494284  22952.501344   1692.817954
PE26 -27319.443450  10792.002626   3604.977142   4158.402311
PE27 -24172.790614 -14005.996901  -9782.237796    396.480171
PE30 -15754.966333 -23395.617466   8976.122311   4582.831663
PE31  15826.693777  23297.907515  -9070.998870   -467.913048
PE33 -13081.587973  17726.696341  19768.582327   -469.868366
PE36  27290.571394 -10918.518881  -3507.383463    667.691364
PG01 -12955.219156 -13516.549293 -19164.290584   -114.433287
PG02  -9452.052648  14775.500707  20521.657071   -295.405733
PG03 -13382.897864 -22940.428856   1614.422630     -6.569726
PG04  12980.861697 -22662.403260   2430.179628    142.379766
PG05  -1061.670732  21107.015732  15830.080517     -1.050358
PG06 -23232.921563   6692.292178  11067.045707    -43.020802
PG07 -24713.935034  -6933.288091   8015.312902    -97.046461
PG08   1580.695216 -21956.852797 -14675.308485     -4.838328
PG09 -14601.411972  -5371.443208  21483.024593    -20.241736
PG10  16356.928974   -161.245382 -20904.232459    -36.083181
PG11  -8528.194178 -14266.705332 -21228.031714   -519.592682
PG12   9557.289745  24810.136095  -2013.817005    208.453008
PG13 -11660.860954  22608.843314  -7635.461700    -46.726191
PG14  18383.581998 -18057.538205  -5699.690800    -63.657215
PG15   1692.133289  21822.521474 -15051.215677   -290.150413
PG16   3695.212241 -19945.461271  16716.608451    -70.073615
PG17 -19278.476888  11962.527718 -13324.601660    117.276488
PG18  -3465.662926 -15420.029195 -21862.425059     82.321642
PG19 -19594.623768  15982.955906  -8486.507368   -273.276842
PG20  19993.241362   8415.122812 -15543.336792    526.700142
PG21  26019.676259   2750.537790   4722.859050   -126.491501
PG22 -10061.555312 -23918.906296  -5671.777890   -750.190781
PG23  -6765.129683 -16629.012011  19796.919646   -169.249049
PG24  10591.686015  14418.753256 -19888.980997     -1.547300
PG25  17177.388665  17515.266162  10279.733641    -10.231792
PG26  10410.727057 -12236.960967  21105.911519     28.572540
PG27  11746.111328 -23382.162176  -3589.159468    -41.528470
PG28 -15510.394111   -803.917432 -20926.729378    763.391203
PG29  11857.686502   8599.689810  22120.877815    109.807324
PG30 -26475.418461    267.742500  -3158.752096    -31.416677
PG31  22507.427670  -7319.170316  12487.613355     13.430619
PG32  18983.824070 -12193.989663 -13850.158183     40.596480
PJ01 -25284.982582  26763.065069  25578.996428   -252.816410
PJ02 -25952.309691  15071.838847 -25179.857837     -3.262942
PJ03 -27064.852030  31871.399309   -763.176509     -1.275009
PJ07 -25348.485674  33683.782029    -15.585171     -0.011066
PR01  10695.265721   6930.869287 -22092.630398     49.046803
PR02   8916.781546 -15233.501898 -18353.207993    385.975524
PR03   1835.786795 -25210.383054  -3206.681723      0.884213
PR05 -10638.748143  -4308.096984  22787.024486     34.894648
PR06  -8466.333209  16267.764480  17731.197910    161.093438
PR07  -1656.614821  25326.545332   2779.044503    -25.934445
PR08   6143.060210  20738.375518 -13479.473248     15.882466
PR09 -11774.953498   5458.768444 -21953.449680     88.335396
PR11  18283.425271  15610.154406  -8426.092094    -77.883565
PR12  22484.039575   8765.028174   8322.191537     57.733358
PR13  13559.142386  -3770.384855  21261.675155    -27.817105
PR14  -2950.811600 -13658.522232  21363.549149     42.534095
PR15 -17759.072537 -15771.791649   9337.546015    103.777008
PR16 -22570.062283  -8164.116226  -8488.048306      5.210405
PR17  10799.409699 -15151.904691 -17468.173119    256.593431
PR18  -5915.467403  -8735.592949 -23216.020282      5.884367
PR19 -19314.684473   1759.047813 -16567.094221    -51.423023
PR20 -22257.026289  12409.778209   1515.291518   -389.125773
PR21 -10131.345281  14951.432592  17992.005215    -69.588944
PR22   8459.572388   7149.164014  22966.335134    -35.675732
PR23  21772.473228  -5813.974138  11945.697822    251.005822
PR24  21328.653089 -13526.734517  -3582.853691   -184.254668
EOF
